[{"OBJECT_NAME":"STARLINK-34056","OBJECT_ID":"2025-093F","EPOCH":"2026-03-09T09:19:15.252672","MEAN_MOTION":15.27569784,"ECCENTRICITY":4.948e-5,"INCLINATION":42.9951,"RA_OF_ASC_NODE":79.8164,"ARG_OF_PERICENTER":239.5372,"MEAN_ANOMALY":120.5431,"EPHEMERIS_TYPE":0,"CLASSIFICATION_TYPE":"U","NORAD_CAT_ID":63841,"ELEMENT_SET_NO":999,"REV_AT_EPOCH":4770,"BSTAR":0.0011262482,"MEAN_MOTION_DOT":0.0003085,"MEAN_MOTION_DDOT":0},{"OBJECT_NAME":"TITAN 3C TRANSTAGE DEB","OBJECT_ID":"1965-082PT","EPOCH":"2026-03-09T13:23:41.116128","MEAN_MOTION":15.28908269,"ECCENTRICITY":0.00104371,"INCLINATION":32.0266,"RA_OF_ASC_NODE":255.1391,"ARG_OF_PERICENTER":172.8339,"MEAN_ANOMALY":187.2474,"EPHEMERIS_TYPE":0,"CLASSIFICATION_TYPE":"U","NORAD_CAT_ID":3462,"ELEMENT_SET_NO":999,"REV_AT_EPOCH":24824,"BSTAR":0.0004444037,"MEAN_MOTION_DOT":0.00012939,"MEAN_MOTION_DDOT":0}]
